NOAA 1 [-]              
1 04793U 70106A   22280.91574872 -.00000032  00000+0  70572-4 0  9994
2 04793 101.5448 341.8429 0031922 103.6239  69.4233 12.54007766371680
NOAA 2 (ITOS-D) [-]     
1 06235U 72082A   22280.86641256 -.00000012  00000+0  21658-3 0  9995
2 06235 101.9663 263.8464 0003725 218.6127 200.2451 12.53152309286057
NOAA 3 [-]              
1 06920U 73086A   22280.89915712 -.00000023  00000+0  17022-3 0  9997
2 06920 102.2205 262.8135 0006720  81.8804 333.3238 12.40349046214737
NOAA 4 [-]              
1 07529U 74089A   22280.84537424 -.00000021  00000+0  16065-3 0  9996
2 07529 101.9271 260.8600 0008639 249.7095 170.7159 12.53160999190623
NOAA 5 [-]              
1 09057U 76077A   22280.90218750 -.00000015  00000+0  23338-3 0  9992
2 09057 102.1131 247.7433 0009687 294.3089 121.2256 12.37774926 87650
TIROS N [-]             
1 11060U 78096A   22281.14286814  .00000218  00000+0  12605-3 0  9994
2 11060  98.6233 331.8344 0010792 173.4191 186.7129 14.18420549487823
NOAA 6 [-]              
1 11416U 79057A   22281.03638740  .00000360  00000+0  14566-3 0  9990
2 11416  98.6646 292.0710 0009268 288.7714  71.2465 14.33808780257862
NOAA 7 [-]              
1 12553U 81059A   22280.75754673  .00000070  00000+0  56934-4 0  9994
2 12553  98.9873 326.5055 0011987 152.4622 207.7190 14.17346626133706
NOAA 8 [-]              
1 13923U 83022A   22281.45084853  .00000231  00000+0  10918-3 0  9992
2 13923  98.6967 271.6042 0014110 237.2892 122.6930 14.28838967 58807
NOAA 9 [-]              
1 15427U 84123A   22280.85645052  .00000200  00000+0  12406-3 0  9993
2 15427  99.0592 255.0740 0014329 203.8570 222.2881 14.16229407952526
NOAA 10 [-]             
1 16969U 86073A   22281.23485008  .00000215  00000+0  10360-3 0  9990
2 16969  98.5795 265.3695 0012029 347.6690  23.2575 14.28228196877190
NOAA 11 [-]             
1 19531U 88089A   22280.88973487  .00000094  00000+0  69370-4 0  9991
2 19531  98.4358 263.8499 0010506 209.8949 150.1627 14.15325773756729
NOAA 12 [-]             
1 21263U 91032A   22280.89826670  .00000165  00000+0  86862-4 0  9994
2 21263  98.5209 277.5994 0013927  15.2110 344.9486 14.26015599632757
NOAA 13 [-]             
1 22739U 93050A   22280.90633342  .00000187  00000+0  12284-3 0  9999
2 22739  98.5183 255.1643 0010075  27.4597 332.7107 14.12867398502933
NOAA 14 [-]             
1 23455U 94089A   22280.90755192  .00000085  00000+0  65808-4 0  9994
2 23455  98.4428 301.5038 0009554   8.4644 351.6689 14.14211906432607
NOAA 15 [B]             
1 25338U 98030A   22281.44477108  .00000238  00000+0  11751-3 0  9991
2 25338  98.6365 309.4625 0009758 333.7676  26.3009 14.26179258269375
NOAA 16 [-]             
1 26536U 00055A   22280.88922431  .00000117  00000+0  84715-4 0  9990
2 26536  98.6242 335.8471 0010183 198.8952 161.1844 14.13347864433232
NOAA 17 [-]             
1 27453U 02032A   22281.18776002  .00000207  00000+0  10686-3 0  9996
2 27453  98.6814 225.1770 0010982 308.1699  51.8490 14.25148489 54922
NOAA 18 [B]             
1 28654U 05018A   22281.38075778  .00000220  00000+0  14242-3 0  9998
2 28654  98.9395 351.6763 0014346  16.6064 343.5574 14.12786241896013
NOAA 19 [+]             
1 33591U 09005A   22281.46568981  .00000257  00000+0  16381-3 0  9992
2 33591  99.1382 317.9262 0013217 227.9209 132.0839 14.12618967704406
SUOMI NPP [+]           
1 37849U 11061A   22281.48358094  .00000136  00000+0  85334-4 0  9992
2 37849  98.7393 218.4960 0001040  78.6370  55.0538 14.19549219567221
NOAA 20 [+]             
1 43013U 17073A   22281.42144633  .00000113  00000+0  74543-4 0  9992
2 43013  98.7232 218.2357 0001654  87.7967 272.3398 14.19548356253259
